{"type": "FeatureCollection", "features": [{"type": "Feature", "id": "DYFI.UTM:(51N 0788 0784 1000)", "properties": {"code": "UTM:(51N 0788 0784 1000)", "name": null, "refid": 1, "instrumentType": "OBSERVED", "source": "USGS (Did You Feel It?)", "network": "DYFI", "commType": "UNK", "location": "", "intensity": 6.0, "intensity_flag": "0", "intensity_stddev": 0.5016, "pga": 10.9519, "pgv": 13.0374, "distance": 155.551, "elev": null, "vs30": 275.4, "channels": [], "nresp": 4, "station_type": "macroseismic", "predictions": [{"name": "sa(3.0)", "value": 1.8572, "value_rock": 0.977, "value_soil": 2.5513, "units": "%g", "ln_tau": 0.3903, "ln_phi": 0.6162, "ln_sigma": 0.7294, "ln_sigma_rock": 0.7312, "ln_sigma_soil": 0.731, "ln_bias": 0.0002, "ln_bias_sigma": 0.3104}, {"name": "pgv", "value": 6.3983, "value_rock": 3.9448, "value_soil": 8.0166, "units": "cm/s", "ln_tau": 0.3027, "ln_phi": 0.4988, "ln_sigma": 0.5835, "ln_sigma_rock": 0.5862, "ln_sigma_soil": 0.5808, "ln_bias": -0.0069, "ln_bias_sigma": 0.2368}, {"name": "sa(0.3)", "value": 15.6317, "value_rock": 8.8176, "value_soil": 17.842, "units": "%g", "ln_tau": 0.3494, "ln_phi": 0.5958, "ln_sigma": 0.6906, "ln_sigma_rock": 0.6995, "ln_sigma_soil": 0.6827, "ln_bias": -0.0525, "ln_bias_sigma": 0.2735}, {"name": "sa(1.0)", "value": 7.8561, "value_rock": 3.6864, "value_soil": 10.1724, "units": "%g", "ln_tau": 0.3919, "ln_phi": 0.618, "ln_sigma": 0.7317, "ln_sigma_rock": 0.736, "ln_sigma_soil": 0.7285, "ln_bias": 0.0099, "ln_bias_sigma": 0.3011}, {"name": "pga", "value": 6.0198, "value_rock": 4.8629, "value_soil": 6.8924, "units": "%g", "ln_tau": 0.346, "ln_phi": 0.5359, "ln_sigma": 0.6379, "ln_sigma_rock": 0.6458, "ln_sigma_soil": 0.6341, "ln_bias": -0.039, "ln_bias_sigma": 0.2566}, {"name": "mmi", "value": 5.0383, "value_rock": 4.6954, "value_soil": 5.2559, "units": "intensity", "tau": 0.556, "phi": 1.085, "sigma": 1.2192, "sigma_rock": 1.2298, "sigma_soil": 1.214, "bias": -0.1939, "bias_sigma": 0.3925}], "pgm_from_mmi": [{"name": "pgv", "value": 13.0374, "units": "cm/s", "ln_sigma": 0.875, "flag": "0"}, {"name": "sa(1.0)", "value": 21.1799, "units": "%g", "ln_sigma": 1.0822, "flag": "0"}, {"name": "pga", "value": 10.9519, "units": "%g", "ln_sigma": 0.8059, "flag": "0"}, {"name": "sa(0.3)", "value": 24.8876, "units": "%g", "ln_sigma": 1.0131, "flag": "0"}, {"name": "sa(3.0)", "value": 4.2695, "units": "%g", "ln_sigma": 1.4737, "flag": "0"}], "distance_stddev": 0.0, "distances": {"repi": 182.69, "rhypo": 187.018, "rjb": 151.038, "rjb_var": 0.0, "rrup": 155.551, "rrup_var": 0.0, "rx": 170.4, "ry0": 107.171, "rvolc": 0.0}}, "geometry": {"type": "Point", "coordinates": [125.6116, 7.0899]}}, {"type": "Feature", "id": "DYFI.UTM:(51N 0809 0824 1000)", "properties": {"code": "UTM:(51N 0809 0824 1000)", "name": null, "refid": 1, "instrumentType": "OBSERVED", "source": "USGS (Did You Feel It?)", "network": "DYFI", "commType": "UNK", "location": "", "intensity": 5.7, "intensity_flag": "0", "intensity_stddev": 0.5016, "pga": 9.9316, "pgv": 10.4774, "distance": 112.671, "elev": null, "vs30": 239.54, "channels": [], "nresp": 4, "station_type": "macroseismic", "predictions": [{"name": "sa(3.0)", "value": 2.7813, "value_rock": 1.3776, "value_soil": 3.5973, "units": "%g", "ln_tau": 0.3903, "ln_phi": 0.6162, "ln_sigma": 0.7294, "ln_sigma_rock": 0.7312, "ln_sigma_soil": 0.731, "ln_bias": 0.0002, "ln_bias_sigma": 0.3104}, {"name": "pgv", "value": 9.3832, "value_rock": 5.543, "value_soil": 11.1996, "units": "cm/s", "ln_tau": 0.3015, "ln_phi": 0.4977, "ln_sigma": 0.5819, "ln_sigma_rock": 0.5862, "ln_sigma_soil": 0.5797, "ln_bias": -0.0068, "ln_bias_sigma": 0.2359}, {"name": "sa(0.3)", "value": 27.0457, "value_rock": 15.1139, "value_soil": 29.1165, "units": "%g", "ln_tau": 0.3434, "ln_phi": 0.5906, "ln_sigma": 0.6832, "ln_sigma_rock": 0.6994, "ln_sigma_soil": 0.6757, "ln_bias": -0.0516, "ln_bias_sigma": 0.2689}, {"name": "sa(1.0)", "value": 12.769, "value_rock": 5.6903, "value_soil": 15.4406, "units": "%g", "ln_tau": 0.3901, "ln_phi": 0.6161, "ln_sigma": 0.7292, "ln_sigma_rock": 0.736, "ln_sigma_soil": 0.7264, "ln_bias": 0.0099, "ln_bias_sigma": 0.2997}, {"name": "pga", "value": 10.0647, "value_rock": 8.1419, "value_soil": 11.1303, "units": "%g", "ln_tau": 0.3416, "ln_phi": 0.5326, "ln_sigma": 0.6327, "ln_sigma_rock": 0.6457, "ln_sigma_soil": 0.6292, "ln_bias": -0.0385, "ln_bias_sigma": 0.2533}, {"name": "mmi", "value": 5.7214, "value_rock": 5.3807, "value_soil": 5.8831, "units": "intensity", "tau": 0.5489, "phi": 1.0808, "sigma": 1.2122, "sigma_rock": 1.2297, "sigma_soil": 1.2074, "bias": -0.1915, "bias_sigma": 0.3874}], "pgm_from_mmi": [{"name": "pgv", "value": 10.4774, "units": "cm/s", "ln_sigma": 0.875, "flag": "0"}, {"name": "sa(1.0)", "value": 15.8056, "units": "%g", "ln_sigma": 1.0822, "flag": "0"}, {"name": "pga", "value": 9.9316, "units": "%g", "ln_sigma": 0.8059, "flag": "0"}, {"name": "sa(0.3)", "value": 22.0707, "units": "%g", "ln_sigma": 1.0131, "flag": "0"}, {"name": "sa(3.0)", "value": 3.1929, "units": "%g", "ln_sigma": 1.4737, "flag": "0"}], "distance_stddev": 0.0, "distances": {"repi": 137.374, "rhypo": 143.079, "rjb": 106.02, "rjb_var": 0.0, "rrup": 112.671, "rrup_var": 0.0, "rx": 140.403, "ry0": 73.2, "rvolc": 0.0}}, "geometry": {"type": "Point", "coordinates": [125.8038, 7.4502]}}, {"type": "Feature", "id": "DYFI.UTM:(51P 0636 0910 1000)", "properties": {"code": "UTM:(51P 0636 0910 1000)", "name": null, "refid": 1, "instrumentType": "OBSERVED", "source": "USGS (Did You Feel It?)", "network": "DYFI", "commType": "UNK", "location": "", "intensity": 3.8, "intensity_flag": "0", "intensity_stddev": 0.5106, "pga": "null", "pgv": "null", "distance": 226.957, "elev": null, "vs30": 372.56, "channels": [], "nresp": 3, "station_type": "macroseismic", "predictions": [{"name": "sa(3.0)", "value": 0.9008, "value_rock": 0.6129, "value_soil": 1.6009, "units": "%g", "ln_tau": 0.3904, "ln_phi": 0.6163, "ln_sigma": 0.7295, "ln_sigma_rock": 0.7312, "ln_sigma_soil": 0.7311, "ln_bias": 0.0002, "ln_bias_sigma": 0.3104}, {"name": "pgv", "value": 3.3975, "value_rock": 2.523, "value_soil": 5.157, "units": "cm/s", "ln_tau": 0.3038, "ln_phi": 0.5, "ln_sigma": 0.5851, "ln_sigma_rock": 0.5862, "ln_sigma_soil": 0.582, "ln_bias": -0.0069, "ln_bias_sigma": 0.2377}, {"name": "sa(0.3)", "value": 6.452, "value_rock": 4.1153, "value_soil": 8.6778, "units": "%g", "ln_tau": 0.3541, "ln_phi": 0.6001, "ln_sigma": 0.6968, "ln_sigma_rock": 0.6996, "ln_sigma_soil": 0.6902, "ln_bias": -0.0532, "ln_bias_sigma": 0.2772}, {"name": "sa(1.0)", "value": 3.1805, "value_rock": 2.009, "value_soil": 5.6256, "units": "%g", "ln_tau": 0.3934, "ln_phi": 0.6195, "ln_sigma": 0.7338, "ln_sigma_rock": 0.7361, "ln_sigma_soil": 0.7308, "ln_bias": 0.0099, "ln_bias_sigma": 0.3023}, {"name": "pga", "value": 3.071, "value_rock": 2.3946, "value_soil": 3.5025, "units": "%g", "ln_tau": 0.3496, "ln_phi": 0.5388, "ln_sigma": 0.6423, "ln_sigma_rock": 0.6459, "ln_sigma_soil": 0.6393, "ln_bias": -0.0394, "ln_bias_sigma": 0.2593}, {"name": "mmi", "value": 4.3244, "value_rock": 4.157, "value_soil": 4.4129, "units": "intensity", "tau": 0.2354, "phi": 0.7531, "sigma": 0.789, "sigma_rock": 0.7903, "sigma_soil": 0.7879, "bias": -0.0821, "bias_sigma": 0.1661}], "pgm_from_mmi": [{"name": "pgv", "value": null, "units": "cm/s", "ln_sigma": null, "flag": "0"}, {"name": "sa(1.0)", "value": null, "units": "%g", "ln_sigma": null, "flag": "0"}, {"name": "pga", "value": null, "units": "%g", "ln_sigma": null, "flag": "0"}, {"name": "sa(0.3)", "value": null, "units": "%g", "ln_sigma": null, "flag": "0"}, {"name": "sa(3.0)", "value": null, "units": "%g", "ln_sigma": null, "flag": "0"}], "distance_stddev": 0.0, "distances": {"repi": 241.647, "rhypo": 244.936, "rjb": 224.257, "rjb_var": 0.0, "rrup": 226.957, "rrup_var": 0.0, "rx": 287.261, "ry0": 0.0, "rvolc": 0.0}}, "geometry": {"type": "Point", "coordinates": [124.2393, 8.2351]}}, {"type": "Feature", "id": "DYFI.UTM:(51P 0699 0931 1000)", "properties": {"code": "UTM:(51P 0699 0931 1000)", "name": null, "refid": 1, "instrumentType": "OBSERVED", "source": "USGS (Did You Feel It?)", "network": "DYFI", "commType": "UNK", "location": "", "intensity": 6.4, "intensity_flag": "0", "intensity_stddev": 0.5016, "pga": 13.8833, "pgv": 17.4491, "distance": 162.33, "elev": null, "vs30": 430.37, "channels": [], "nresp": 4, "station_type": "macroseismic", "predictions": [{"name": "sa(3.0)", "value": 1.2846, "value_rock": 0.9304, "value_soil": 2.4298, "units": "%g", "ln_tau": 0.3904, "ln_phi": 0.6163, "ln_sigma": 0.7295, "ln_sigma_rock": 0.7312, "ln_sigma_soil": 0.7311, "ln_bias": 0.0002, "ln_bias_sigma": 0.3104}, {"name": "pgv", "value": 4.8158, "value_rock": 3.7615, "value_soil": 7.6496, "units": "cm/s", "ln_tau": 0.304, "ln_phi": 0.5002, "ln_sigma": 0.5853, "ln_sigma_rock": 0.5862, "ln_sigma_soil": 0.581, "ln_bias": -0.0069, "ln_bias_sigma": 0.2378}, {"name": "sa(0.3)", "value": 12.1063, "value_rock": 8.1544, "value_soil": 16.5908, "units": "%g", "ln_tau": 0.3543, "ln_phi": 0.6002, "ln_sigma": 0.6969, "ln_sigma_rock": 0.6995, "ln_sigma_soil": 0.6836, "ln_bias": -0.0532, "ln_bias_sigma": 0.2774}, {"name": "sa(1.0)", "value": 5.1177, "value_rock": 3.4628, "value_soil": 9.5734, "units": "%g", "ln_tau": 0.3934, "ln_phi": 0.6196, "ln_sigma": 0.734, "ln_sigma_rock": 0.736, "ln_sigma_soil": 0.7288, "ln_bias": 0.0099, "ln_bias_sigma": 0.3023}, {"name": "pga", "value": 5.5921, "value_rock": 4.5171, "value_soil": 6.4287, "units": "%g", "ln_tau": 0.3493, "ln_phi": 0.5386, "ln_sigma": 0.642, "ln_sigma_rock": 0.6458, "ln_sigma_soil": 0.6347, "ln_bias": -0.0394, "ln_bias_sigma": 0.2591}, {"name": "mmi", "value": 4.9388, "value_rock": 4.5958, "value_soil": 5.1628, "units": "intensity", "tau": 0.5613, "phi": 1.0884, "sigma": 1.2246, "sigma_rock": 1.2299, "sigma_soil": 1.2149, "bias": -0.1958, "bias_sigma": 0.3962}], "pgm_from_mmi": [{"name": "pgv", "value": 17.4491, "units": "cm/s", "ln_sigma": 0.875, "flag": "0"}, {"name": "sa(1.0)", "value": 29.3079, "units": "%g", "ln_sigma": 1.0822, "flag": "0"}, {"name": "pga", "value": 13.8833, "units": "%g", "ln_sigma": 0.8059, "flag": "0"}, {"name": "sa(0.3)", "value": 30.897, "units": "%g", "ln_sigma": 1.0131, "flag": "0"}, {"name": "sa(3.0)", "value": 5.8449, "units": "%g", "ln_sigma": 1.4737, "flag": "0"}], "distance_stddev": 0.0, "distances": {"repi": 176.797, "rhypo": 181.266, "rjb": 158.048, "rjb_var": 0.0, "rrup": 162.33, "rrup_var": 0.0, "rx": 221.11, "ry0": 0.0, "rvolc": 0.0}}, "geometry": {"type": "Point", "coordinates": [124.812, 8.4228]}}, {"type": "Feature", "id": "DYFI.UTM:(52P 0188 1083 1000)", "properties": {"code": "UTM:(52P 0188 1083 1000)", "name": null, "refid": 1, "instrumentType": "OBSERVED", "source": "USGS (Did You Feel It?)", "network": "DYFI", "commType": "UNK", "location": "", "intensity": 3.6, "intensity_flag": "0", "intensity_stddev": 0.5106, "pga": "null", "pgv": "null", "distance": 112.808, "elev": null, "vs30": 579.54, "channels": [], "nresp": 3, "station_type": "macroseismic", "predictions": [{"name": "sa(3.0)", "value": 1.6624, "value_rock": 1.3757, "value_soil": 3.5922, "units": "%g", "ln_tau": 0.3904, "ln_phi": 0.6163, "ln_sigma": 0.7295, "ln_sigma_rock": 0.7312, "ln_sigma_soil": 0.731, "ln_bias": 0.0002, "ln_bias_sigma": 0.3105}, {"name": "pgv", "value": 6.3726, "value_rock": 5.5335, "value_soil": 11.1816, "units": "cm/s", "ln_tau": 0.3042, "ln_phi": 0.5004, "ln_sigma": 0.5857, "ln_sigma_rock": 0.5862, "ln_sigma_soil": 0.5798, "ln_bias": -0.0069, "ln_bias_sigma": 0.238}, {"name": "sa(0.3)", "value": 20.0933, "value_rock": 15.0644, "value_soil": 29.0391, "units": "%g", "ln_tau": 0.355, "ln_phi": 0.6009, "ln_sigma": 0.6979, "ln_sigma_rock": 0.6995, "ln_sigma_soil": 0.6758, "ln_bias": -0.0533, "ln_bias_sigma": 0.2779}, {"name": "sa(1.0)", "value": 7.2472, "value_rock": 5.676, "value_soil": 15.4051, "units": "%g", "ln_tau": 0.3937, "ln_phi": 0.6198, "ln_sigma": 0.7343, "ln_sigma_rock": 0.736, "ln_sigma_soil": 0.7265, "ln_bias": 0.0099, "ln_bias_sigma": 0.3025}, {"name": "pga", "value": 9.4331, "value_rock": 8.1152, "value_soil": 11.0991, "units": "%g", "ln_tau": 0.3501, "ln_phi": 0.5392, "ln_sigma": 0.6429, "ln_sigma_rock": 0.6457, "ln_sigma_soil": 0.6293, "ln_bias": -0.0395, "ln_bias_sigma": 0.2597}, {"name": "mmi", "value": 5.6178, "value_rock": 5.376, "value_soil": 5.8791, "units": "intensity", "tau": 0.5626, "phi": 1.0892, "sigma": 1.2259, "sigma_rock": 1.2297, "sigma_soil": 1.2075, "bias": -0.1962, "bias_sigma": 0.3971}], "pgm_from_mmi": [{"name": "pgv", "value": null, "units": "cm/s", "ln_sigma": null, "flag": "0"}, {"name": "sa(1.0)", "value": null, "units": "%g", "ln_sigma": null, "flag": "0"}, {"name": "pga", "value": null, "units": "%g", "ln_sigma": null, "flag": "0"}, {"name": "sa(0.3)", "value": null, "units": "%g", "ln_sigma": null, "flag": "0"}, {"name": "sa(3.0)", "value": null, "units": "%g", "ln_sigma": null, "flag": "0"}], "distance_stddev": 0.0, "distances": {"repi": 143.245, "rhypo": 148.725, "rjb": 108.662, "rjb_var": 0.0, "rrup": 112.808, "rrup_var": 0.0, "rx": 41.493, "ry0": 109.357, "rvolc": 0.0}}, "geometry": {"type": "Point", "coordinates": [126.1606, 9.7899]}}, {"type": "Feature", "id": "DYFI.UTM:(52P 0188 1084 1000)", "properties": {"code": "UTM:(52P 0188 1084 1000)", "name": null, "refid": 1, "instrumentType": "OBSERVED", "source": "USGS (Did You Feel It?)", "network": "DYFI", "commType": "UNK", "location": "", "intensity": 4.8, "intensity_flag": "0", "intensity_stddev": 0.493, "pga": 5.6579, "pgv": 5.438, "distance": 113.73, "elev": null, "vs30": 467.55, "channels": [], "nresp": 5, "station_type": "macroseismic", "predictions": [{"name": "sa(3.0)", "value": 1.8176, "value_rock": 1.3644, "value_soil": 3.5629, "units": "%g", "ln_tau": 0.3904, "ln_phi": 0.6163, "ln_sigma": 0.7295, "ln_sigma_rock": 0.7312, "ln_sigma_soil": 0.731, "ln_bias": 0.0002, "ln_bias_sigma": 0.3104}, {"name": "pgv", "value": 6.8243, "value_rock": 5.4883, "value_soil": 11.0921, "units": "cm/s", "ln_tau": 0.3041, "ln_phi": 0.5002, "ln_sigma": 0.5854, "ln_sigma_rock": 0.5862, "ln_sigma_soil": 0.5798, "ln_bias": -0.0069, "ln_bias_sigma": 0.2379}, {"name": "sa(0.3)", "value": 21.3575, "value_rock": 14.8763, "value_soil": 28.7169, "units": "%g", "ln_tau": 0.3541, "ln_phi": 0.6, "ln_sigma": 0.6967, "ln_sigma_rock": 0.6995, "ln_sigma_soil": 0.676, "ln_bias": -0.0532, "ln_bias_sigma": 0.2772}, {"name": "sa(1.0)", "value": 7.9787, "value_rock": 5.6185, "value_soil": 15.2562, "units": "%g", "ln_tau": 0.3935, "ln_phi": 0.6196, "ln_sigma": 0.734, "ln_sigma_rock": 0.736, "ln_sigma_soil": 0.7265, "ln_bias": 0.0099, "ln_bias_sigma": 0.3023}, {"name": "pga", "value": 9.7018, "value_rock": 8.0172, "value_soil": 10.9761, "units": "%g", "ln_tau": 0.3489, "ln_phi": 0.5382, "ln_sigma": 0.6414, "ln_sigma_rock": 0.6457, "ln_sigma_soil": 0.6294, "ln_bias": -0.0393, "ln_bias_sigma": 0.2587}, {"name": "mmi", "value": 5.6665, "value_rock": 5.36, "value_soil": 5.8648, "units": "intensity", "tau": 0.5606, "phi": 1.088, "sigma": 1.2239, "sigma_rock": 1.2297, "sigma_soil": 1.2077, "bias": -0.1956, "bias_sigma": 0.3957}], "pgm_from_mmi": [{"name": "pgv", "value": 5.438, "units": "cm/s", "ln_sigma": 0.875, "flag": "0"}, {"name": "sa(1.0)", "value": 7.7473, "units": "%g", "ln_sigma": 1.0822, "flag": "0"}, {"name": "pga", "value": 5.6579, "units": "%g", "ln_sigma": 0.8059, "flag": "0"}, {"name": "sa(0.3)", "value": 9.8721, "units": "%g", "ln_sigma": 1.0131, "flag": "0"}, {"name": "sa(3.0)", "value": 1.6068, "units": "%g", "ln_sigma": 1.4737, "flag": "0"}], "distance_stddev": 0.0, "distances": {"repi": 144.238, "rhypo": 149.681, "rjb": 109.642, "rjb_var": 0.0, "rrup": 113.73, "rrup_var": 0.0, "rx": 41.257, "ry0": 110.34, "rvolc": 0.0}}, "geometry": {"type": "Point", "coordinates": [126.1606, 9.799]}}, {"type": "Feature", "id": "IU.DAV", "properties": {"code": "DAV", "name": "Davao, Philippines", "refid": null, "instrumentType": "UNK", "source": null, "network": "IU", "commType": "UNK", "location": "", "intensity": 5.1, "intensity_flag": "", "intensity_stddev": 0.63, "pga": 2.1963, "pgv": 6.6441, "distance": 159.216, "elev": null, "vs30": 413.8, "channels": [{"name": "--.HN1", "amplitudes": [{"name": "pga", "value": 2.1963, "units": "%g", "flag": "0", "ln_sigma": 0.0}, {"name": "pgv", "value": 6.6441, "units": "cm/s", "flag": "0", "ln_sigma": 0.0}, {"name": "sa(0.3)", "value": 3.2716, "units": "%g", "flag": "0", "ln_sigma": 0.0}, {"name": "sa(1.0)", "value": 3.5059, "units": "%g", "flag": "0", "ln_sigma": 0.0}, {"name": "sa(3.0)", "value": 4.1435, "units": "%g", "flag": "0", "ln_sigma": 0.0}]}, {"name": "--.HN2", "amplitudes": [{"name": "pga", "value": 2.1132, "units": "%g", "flag": "0", "ln_sigma": 0.0}, {"name": "pgv", "value": 6.2493, "units": "cm/s", "flag": "0", "ln_sigma": 0.0}, {"name": "sa(0.3)", "value": 4.1878, "units": "%g", "flag": "0", "ln_sigma": 0.0}, {"name": "sa(1.0)", "value": 5.887, "units": "%g", "flag": "0", "ln_sigma": 0.0}, {"name": "sa(3.0)", "value": 3.256, "units": "%g", "flag": "0", "ln_sigma": 0.0}]}, {"name": "--.HNZ", "amplitudes": [{"name": "pga", "value": 0.8842, "units": "%g", "flag": "0", "ln_sigma": 0.0}, {"name": "pgv", "value": 1.8732, "units": "cm/s", "flag": "0", "ln_sigma": 0.0}, {"name": "sa(0.3)", "value": 1.8055, "units": "%g", "flag": "0", "ln_sigma": 0.0}, {"name": "sa(1.0)", "value": 2.5494, "units": "%g", "flag": "0", "ln_sigma": 0.0}, {"name": "sa(3.0)", "value": 0.7375, "units": "%g", "flag": "0", "ln_sigma": 0.0}]}], "station_type": "seismic", "nresp": "null", "predictions": [{"name": "pgv", "value": 4.9888, "value_rock": 3.8439, "value_soil": 7.8147, "units": "cm/s", "ln_tau": 0.3039, "ln_phi": 0.5001, "ln_sigma": 0.5852, "ln_sigma_rock": 0.5862, "ln_sigma_soil": 0.5809, "ln_bias": -0.0069, "ln_bias_sigma": 0.2378}, {"name": "sa(1.0)", "value": 5.3657, "value_rock": 3.5632, "value_soil": 9.8425, "units": "%g", "ln_tau": 0.3934, "ln_phi": 0.6195, "ln_sigma": 0.7339, "ln_sigma_rock": 0.736, "ln_sigma_soil": 0.7287, "ln_bias": 0.0099, "ln_bias_sigma": 0.3023}, {"name": "pga", "value": 5.8255, "value_rock": 4.6717, "value_soil": 6.6365, "units": "%g", "ln_tau": 0.3491, "ln_phi": 0.5384, "ln_sigma": 0.6416, "ln_sigma_rock": 0.6458, "ln_sigma_soil": 0.6345, "ln_bias": -0.0393, "ln_bias_sigma": 0.2589}, {"name": "mmi", "value": 4.9959, "value_rock": 4.6413, "value_soil": 5.2054, "units": "intensity", "tau": 0.5609, "phi": 1.0881, "sigma": 1.2242, "sigma_rock": 1.2299, "sigma_soil": 1.2145, "bias": -0.1957, "bias_sigma": 0.3959}, {"name": "sa(3.0)", "value": 1.336, "value_rock": 0.9514, "value_soil": 2.4845, "units": "%g", "ln_tau": 0.3904, "ln_phi": 0.6162, "ln_sigma": 0.7295, "ln_sigma_rock": 0.7312, "ln_sigma_soil": 0.731, "ln_bias": 0.0002, "ln_bias_sigma": 0.3104}, {"name": "sa(0.3)", "value": 12.7051, "value_rock": 8.4509, "value_soil": 17.1518, "units": "%g", "ln_tau": 0.3539, "ln_phi": 0.5999, "ln_sigma": 0.6965, "ln_sigma_rock": 0.6995, "ln_sigma_soil": 0.6832, "ln_bias": -0.0532, "ln_bias_sigma": 0.2771}], "mmi_from_pgm": [{"name": "pgv", "value": 5.07, "sigma": 0.63, "flag": "0"}, {"name": "sa(1.0)", "value": 4.38, "sigma": 0.75, "flag": "0"}, {"name": "pga", "value": 3.94, "sigma": 0.66, "flag": "0"}, {"name": "sa(3.0)", "value": 5.96, "sigma": 0.89, "flag": "0"}, {"name": "sa(0.3)", "value": 4.26, "sigma": 0.82, "flag": "0"}], "distance_stddev": 0.0, "distances": {"repi": 186.403, "rhypo": 190.646, "rjb": 154.834, "rjb_var": 0.0, "rrup": 159.216, "rrup_var": 0.0, "rx": 174.406, "ry0": 108.521, "rvolc": 0.0}}, "geometry": {"type": "Point", "coordinates": [125.5791, 7.0697]}}], "references": {"1": {"refid": 1, "long_reference": "USGS Did You Feel It? System", "short_reference": "", "description": ""}}, "metadata": {"eventid": "us7000lff4"}}